NORAD_CAT_ID,OBJECT_NAME,OBJECT_TYPE,EPOCH,MEAN_MOTION,ECCENTRICITY,INCLINATION,RA_OF_ASC_NODE,ARG_OF_PERICENTER,MEAN_ANOMALY,BSTAR,MEAN_MOTION_DOT,MEAN_MOTION_DDOT,TLE_LINE0,TLE_LINE1,TLE_LINE2,SEMIMAJOR_AXIS,PERIOD,APOGEE,PERIGEE,DECAYED
55767.0,STARLINK-5606,PAYLOAD,2024-07-02 12:43:52,14.9832721,0.0002777,70.0006,335.6766,270.2116,89.8725,-2.0353e-05,-3.36e-06,0.0,0 STARLINK-5606,1 55767U 23028AC  24184.53046829 -.00000336  00000-0 -20353-4 0  9992,2 55767  70.0006 335.6766 0002777 270.2116  89.8725 14.98327210 74370,6950.202,96.107,573.997,570.136,0.0
55767.0,STARLINK-5606,PAYLOAD,2024-07-02 14:20:00,14.9832736,0.0002759,70.0005,335.5081,270.0122,90.0721,-3.51e-05,-5.12e-06,0.0,0 STARLINK-5606,1 55767U 23028AC  24184.59722871 -.00000512  00000-0 -35100-4 0  9998,2 55767  70.0005 335.5081 0002759 270.0122  90.0721 14.98327360 74391,6950.201,96.107,573.984,570.148,0.0
55767.0,STARLINK-5606,PAYLOAD,2024-07-02 19:08:24,14.98326876,0.0002921,70.0008,335.0036,271.2709,88.8115,-1.4402e-05,-2.65e-06,0.0,0 STARLINK-5606,1 55767U 23028AC  24184.79750853 -.00000265  00000-0 -14402-4 0  9998,2 55767  70.0008 335.0036 0002921 271.2709  88.8115 14.98326876 74421,6950.203,96.107,574.098,570.037,0.0
55767.0,STARLINK-5606,PAYLOAD,2024-07-03 12:45:53,14.98328652,0.0002946,70.0003,333.1522,270.7764,89.3058,-6.2725e-06,-1.68e-06,0.0,0 STARLINK-5606,1 55767U 23028AC  24185.53186717 -.00000168  00000-0 -62725-5 0  9997,2 55767  70.0003 333.1522 0002946 270.7764  89.3058 14.98328652 74524,6950.197,96.107,574.11,570.015,0.0
55767.0,STARLINK-5606,PAYLOAD,2024-07-03 19:10:25,14.98328964,0.0002827,70.0006,332.4788,266.3302,93.7534,-7.1393e-06,-1.78e-06,0.0,0 STARLINK-5606,1 55767U 23028AC  24185.79890696 -.00000178  00000-0 -71393-5 0  9995,2 55767  70.0006 332.4788 0002827 266.3302  93.7534 14.98328964 74579,6950.196,96.107,574.026,570.096,0.0
55767.0,STARLINK-5606,PAYLOAD,2024-07-04 12:47:54,14.98319616,0.0002853,70.0005,330.6271,266.9641,93.1192,-2.2108e-05,-3.57e-06,0.0,0 STARLINK-5606,1 55767U 23028AC  24186.53327530 -.00000357  00000-0 -22108-4 0  9998,2 55767  70.0005 330.6271 0002853 266.9641  93.1192 14.98319616 74675,6950.225,96.108,574.073,570.107,0.0
55767.0,STARLINK-5606,PAYLOAD,2024-07-04 14:24:03,14.98319326,0.0002842,70.0006,330.4587,266.925,93.1584,-2.6538e-05,-4.09e-06,0.0,0 STARLINK-5606,1 55767U 23028AC  24186.60003601 -.00000409  00000-0 -26538-4 0  9995,2 55767  70.0006 330.4587 0002842 266.9250  93.1584 14.98319326 74693,6950.226,96.108,574.066,570.116,0.0
55767.0,STARLINK-5606,PAYLOAD,2024-07-04 19:12:28,14.98307798,0.0003054,70.0003,329.9529,265.9868,94.0942,-0.00014673,-1.842e-05,0.0,0 STARLINK-5606,1 55767U 23028AC  24186.80032835 -.00001842  00000-0 -14673-3 0  9996,2 55767  70.0003 329.9529 0003054 265.9868  94.0942 14.98307798 74710,6950.262,96.108,574.249,570.004,0.0
55767.0,STARLINK-5606,PAYLOAD,2024-07-05 03:13:08,14.98315296,0.00033,70.0,329.1116,268.2973,91.7808,-7.9819e-05,-1.045e-05,0.0,0 STARLINK-5606,1 55767U 23028AC  24187.13412458 -.00001045  00000-0 -79819-4 0  9995,2 55767  70.0000 329.1116 0003300 268.2973  91.7808 14.98315296 74760,6950.238,96.108,574.397,569.81,0.0
55767.0,STARLINK-5606,PAYLOAD,2024-07-05 12:49:56,14.98322448,0.0003346,69.9998,328.1012,267.9229,92.1547,-2.4775e-05,-3.89e-06,0.0,0 STARLINK-5606,1 55767U 23028AC  24187.53468155 -.00000389  00000-0 -24775-4 0  9995,2 55767  69.9998 328.1012 0003346 267.9229  92.1547 14.98322448 74826,6950.216,96.107,574.407,569.756,0.0
55767.0,STARLINK-5606,PAYLOAD,2024-07-05 14:26:04,14.98322952,0.000334,69.9999,327.9329,267.9384,92.1392,-1.7244e-05,-2.99e-06,0.0,0 STARLINK-5606,1 55767U 23028AC  24187.60144141 -.00000299  00000-0 -17244-4 0  9992,2 55767  69.9999 327.9329 0003340 267.9384  92.1392 14.98322952 74841,6950.215,96.107,574.401,569.758,0.0
55767.0,STARLINK-5606,PAYLOAD,2024-07-05 19:14:28,14.98330623,0.0003229,70.0001,327.4279,269.5466,90.5323,5.0251e-05,5.07e-06,0.0,0 STARLINK-5606,1 55767U 23028AC  24187.80171559  .00000507  00000-0  50251-4 0  9992,2 55767  70.0001 327.4279 0003229 269.5466  90.5323 14.98330623 74864,6950.191,96.107,574.3,569.812,0.0
55767.0,STARLINK-5606,PAYLOAD,2024-07-06 03:15:07,14.98345447,0.0003467,69.9998,326.5866,269.8426,90.2336,-7.5473e-05,-9.94e-06,0.0,0 STARLINK-5606,1 55767U 23028AC  24188.13550802 -.00000994  00000-0 -75473-4 0  9996,2 55767  69.9998 326.5866 0003467 269.8426  90.2336 14.98345447 74918,6950.145,96.106,574.42,569.601,0.0
55767.0,STARLINK-5606,PAYLOAD,2024-07-06 14:28:04,14.98333703,0.000341,69.9998,325.4082,269.0921,90.9847,0.00027242,3.159e-05,0.0,0 STARLINK-5606,1 55767U 23028AC  24188.60282604  .00003159  00000-0  27242-3 0  9994,2 55767  69.9998 325.4082 0003410 269.0921  90.9847 14.98333703 74990,6950.181,96.107,574.416,569.676,0.0
55767.0,STARLINK-5606,PAYLOAD,2024-07-06 19:16:27,14.98342304,0.000339,69.9998,324.9033,269.1412,90.9359,0.00030916,3.599e-05,0.0,0 STARLINK-5606,1 55767U 23028AC  24188.80309863  .00003599  00000-0  30916-3 0  9993,2 55767  69.9998 324.9033 0003390 269.1412  90.9359 14.98342304 75023,6950.155,96.106,574.376,569.664,0.0
55767.0,STARLINK-5606,PAYLOAD,2024-07-07 12:53:57,14.98332139,0.0003161,70.0005,323.0516,269.7994,90.2803,3.4025e-05,3.13e-06,0.0,0 STARLINK-5606,1 55767U 23028AC  24189.53747098  .00000313  00000-0  34025-4 0  9997,2 55767  70.0005 323.0516 0003161 269.7994  90.2803 14.98332139 75121,6950.186,96.107,574.248,569.854,0.0
55767.0,STARLINK-5606,PAYLOAD,2024-07-07 19:18:29,14.98338383,0.0003177,70.0005,322.3782,269.8809,90.1985,6.5293e-05,6.86e-06,0.0,0 STARLINK-5606,1 55767U 23028AC  24189.80450508  .00000686  00000-0  65293-4 0  9998,2 55767  70.0005 322.3782 0003177 269.8809  90.1985 14.98338383 75162,6950.167,96.106,574.24,569.824,0.0
55767.0,STARLINK-5606,PAYLOAD,2024-07-08 14:32:05,14.98339739,0.0003111,70.0007,320.3587,269.4385,90.6418,-0.00011483,-1.463e-05,0.0,0 STARLINK-5606,1 55767U 23028AC  24190.60562403 -.00001463  00000-0 -11483-3 0  9993,2 55767  70.0007 320.3587 0003111 269.4385  90.6418 14.98339739 75294,6950.163,96.106,574.19,569.866,0.0
55767.0,STARLINK-5606,PAYLOAD,2024-07-08 19:20:29,14.98343333,0.0003069,70.0008,319.8553,263.8361,96.2448,-7.8139e-05,-1.026e-05,0.0,0 STARLINK-5606,1 55767U 23028AC  24190.80589885 -.00001026  00000-0 -78139-4 0  9995,2 55767  70.0008 319.8553 0003069 263.8361  96.2448 14.98343333 75318,6950.152,96.106,574.15,569.884,0.0
55767.0,STARLINK-5606,PAYLOAD,2024-07-09 12:57:58,14.98327845,0.0002885,70.0011,318.0009,272.7261,87.3568,-3.3693e-06,-1.33e-06,0.0,0 STARLINK-5606,1 55767U 23028AC  24191.54026440 -.00000133  00000-0 -33693-5 0  9995,2 55767  70.0011 318.0009 0002885 272.7261  87.3568 14.98327845 75428,6950.2,96.107,574.07,570.059,0.0
55767.0,STARLINK-5606,PAYLOAD,2024-07-09 14:34:06,14.98330493,0.0003028,70.0008,317.8342,265.5711,94.5102,-9.7212e-07,-1.05e-06,0.0,0 STARLINK-5606,1 55767U 23028AC  24191.60702200 -.00000105  00000-0 -97212-6 0  9994,2 55767  70.0008 317.8342 0003028 265.5711  94.5102 14.98330493 75440,6950.191,96.107,574.161,569.952,0.0
55767.0,STARLINK-5606,PAYLOAD,2024-07-09 17:46:22,14.98331013,0.0003057,70.0006,317.4977,265.1808,94.9002,-1.5197e-05,-2.74e-06,0.0,0 STARLINK-5606,1 55767U 23028AC  24191.74054192 -.00000274  00000-0 -15197-4 0  9996,2 55767  70.0006 317.4977 0003057 265.1808  94.9002 14.98331013 75467,6950.19,96.107,574.179,569.93,0.0
55767.0,STARLINK-5606,PAYLOAD,2024-07-10 14:36:07,14.9832811,0.0003149,70.0002,315.3085,268.9896,91.0902,-3.3351e-05,-4.91e-06,0.0,0 STARLINK-5606,1 55767U 23028AC  24192.60842558 -.00000491  00000-0 -33351-4 0  9996,2 55767  70.0002 315.3085 0003149 268.9896  91.0902 14.98328110 75595,6950.199,96.107,574.252,569.875,0.0
55767.0,STARLINK-5606,PAYLOAD,2024-07-11 14:38:08,14.98332078,0.0003255,70.0004,312.7835,268.4746,91.604,6.4599e-05,6.78e-06,0.0,0 STARLINK-5606,1 55767U 23028AC  24193.60982063  .00000678  00000-0  64599-4 0  9996,2 55767  70.0004 312.7835 0003255 268.4746  91.6040 14.98332078 75742,6950.186,96.107,574.314,569.789,0.0
55767.0,STARLINK-5606,PAYLOAD,2024-07-12 14:40:09,14.98330293,0.0003123,70.0009,310.2603,268.1736,91.9065,6.4585e-05,6.78e-06,0.0,0 STARLINK-5606,1 55767U 23028AC  24194.61122096  .00000678  00000-0  64585-4 0  9995,2 55767  70.0009 310.2603 0003123 268.1736  91.9065 14.98330293 75896,6950.192,96.107,574.228,569.886,0.0
55767.0,STARLINK-5606,PAYLOAD,2024-07-12 17:52:25,14.98330946,0.0003158,70.0009,309.9237,268.4312,91.6485,6.8291e-05,7.22e-06,0.0,0 STARLINK-5606,1 55767U 23028AC  24194.74474038  .00000722  00000-0  68291-4 0  9993,2 55767  70.0009 309.9237 0003158 268.4312  91.6485 14.98330946 75905,6950.19,96.107,574.25,569.86,0.0
55767.0,STARLINK-5606,PAYLOAD,2024-07-13 14:42:10,14.98331193,0.0003089,70.0011,307.7367,263.7608,96.3199,-7.3463e-05,-9.69e-06,0.0,0 STARLINK-5606,1 55767U 23028AC  24195.61262343 -.00000969  00000-0 -73463-4 0  9996,2 55767  70.0011 307.7367 0003089 263.7608  96.3199 14.98331193 76042,6950.189,96.107,574.201,569.907,0.0
55767.0,STARLINK-5606,PAYLOAD,2024-07-13 17:54:26,14.9833305,0.0003064,70.0011,307.3999,264.2591,95.8218,-4.7615e-05,-6.61e-06,0.0,0 STARLINK-5606,1 55767U 23028AC  24195.74614143 -.00000661  00000-0 -47615-4 0  9998,2 55767  70.0011 307.3999 0003064 264.2591  95.8218 14.98333050 76050,6950.183,96.107,574.178,569.919,0.0
55767.0,STARLINK-5606,PAYLOAD,2024-07-14 14:44:11,14.98331368,0.0003178,70.0007,305.2109,266.7096,93.37,0.00012366,1.383e-05,0.0,0 STARLINK-5606,1 55767U 23028AC  24196.61401643  .00001383  00000-0  12366-3 0  9998,2 55767  70.0007 305.2109 0003178 266.7096  93.3700 14.98331368 76192,6950.189,96.107,574.262,569.845,0.0
55767.0,STARLINK-5606,PAYLOAD,2024-07-14 16:20:18,14.98336795,0.0003154,70.0008,305.0427,266.7428,93.3371,7.3932e-05,7.89e-06,0.0,0 STARLINK-5606,1 55767U 23028AC  24196.68077406  .00000789  00000-0  73932-4 0  9997,2 55767  70.0008 305.0427 0003154 266.7428  93.3371 14.98336795 76202,6950.172,96.107,574.229,569.845,0.0
